*******************************************************************************
 Revised: April 12, 2021                Venus                           299 / 2
 
 PHYSICAL DATA (updated 2020-Oct-19):
  Vol. Mean Radius (km) =  6051.84+-0.01 Density (g/cm^3)      =  5.204
  Mass x10^23 (kg)      =    48.685      Volume (x10^10 km^3)  = 92.843
  Sidereal rot. period  =   243.018484 d Sid. Rot. Rate (rad/s)= -0.00000029924
  Mean solar day        =   116.7490 d   Equ. gravity  m/s^2   =  8.870
  Mom. of Inertia       =     0.33       Core radius (km)      = ~3200
  Geometric Albedo      =     0.65       Potential Love # k2   = ~0.25
  GM (km^3/s^2)         = 324858.592     Equatorial Radius, Re = 6051.893 km
  GM 1-sigma (km^3/s^2) =    +-0.006     Mass ratio (Sun/Venus)= 408523.72
  Atmos. pressure (bar) =  90            Max. angular diam.    =   60.2"
  Mean Temperature (K)  = 735            Visual mag. V(1,0)    =   -4.40
  Obliquity to orbit    = 177.3 deg      Hill's sphere rad.,Rp =  167.1
  Sidereal orb. per., y =   0.61519726   Orbit speed, km/s     =   35.021
  Sidereal orb. per., d = 224.70079922   Escape speed, km/s    =   10.361
                                 Perihelion  Aphelion    Mean
  Solar Constant (W/m^2)         2759         2614       2650
  Maximum Planetary IR (W/m^2)    153         153         153
  Minimum Planetary IR (W/m^2)    153         153         153
*******************************************************************************


*******************************************************************************
Ephemeris / WWW_USER Thu May  5 15:39:53 2022 Pasadena, USA      / Horizons
*******************************************************************************
Target body name: Venus (299)                     {source: DE441}
Center body name: Sun (10)                        {source: DE441}
Center-site name: BODY CENTER
*******************************************************************************
Start time      : A.D. 2017-Oct-14 00:00:00.0000 TDB
Stop  time      : A.D. 2018-Jan-02 00:00:00.0000 TDB
Step-size       : 60 minutes
*******************************************************************************
Center geodetic : 0.00000000,0.00000000,0.0000000 {E-lon(deg),Lat(deg),Alt(km)}
Center cylindric: 0.00000000,0.00000000,0.0000000 {E-lon(deg),Dxy(km),Dz(km)}
Center radii    : 696000.0 x 696000.0 x 696000.0 k{Equator, meridian, pole}    
Output units    : KM-S
Output type     : GEOMETRIC cartesian states
Output format   : 3 (position, velocity, LT, range, range-rate)
Reference frame : Ecliptic of J2000.0
*******************************************************************************
            JDTDB,            Calendar Date (TDB),        delta-T,                      X,                      Y,                      Z,                     VX,                     VY,                     VZ,                     LT,                     RG,                     RR,
******************************************************************************************************************************************************************************************************************************************************************************************
$$SOE
2458099.916666667, A.D. 2017-Dec-12 10:00:00.0000,      69.183383, -4.661751778722072E+07, -9.795855911031811E+07,  1.346400687029660E+06,  3.138099364992030E+01, -1.520417996652332E+01, -2.019445741700957E+00,  3.618960613837079E+02,  1.084937097827407E+08,  2.189670648399440E-01,
2458099.958333333, A.D. 2017-Dec-12 11:00:00.0000,      69.183384, -4.650451484373020E+07, -9.801322818123737E+07,  1.339129777334549E+06,  3.139841229126626E+01, -1.516752282415682E+01, -2.019948078186453E+00,  3.618986901576170E+02,  1.084944978693324E+08,  2.188587705883828E-01,
2458100.000000000, A.D. 2017-Dec-12 12:00:00.0000,      69.183386, -4.639144926992199E+07, -9.806776525109783E+07,  1.331857064144284E+06,  3.141578826729671E+01, -1.513084605327677E+01, -2.020447683358315E+00,  3.619013176293358E+02,  1.084952855655373E+08,  2.187501833173145E-01,
2458100.041666667, A.D. 2017-Dec-12 13:00:00.0000,      69.183387, -4.627832121942968E+07, -9.812217024932657E+07,  1.324582557292603E+06,  3.143312155665229E+01, -1.509414970374591E+01, -2.020944556667872E+00,  3.619039437953467E+02,  1.084960728703008E+08,  2.186413031832438E-01,
2458100.083333333, A.D. 2017-Dec-12 14:00:00.0000,      69.183388, -4.616513084596366E+07, -9.817644310553026E+07,  1.317306266615182E+06,  3.145041213803169E+01, -1.505743382544841E+01, -2.021438697570106E+00,  3.619065686521340E+02,  1.084968597825690E+08,  2.185321303430744E-01,
2458100.125000000, A.D. 2017-Dec-12 15:00:00.0000,      69.183389, -4.605187830331092E+07, -9.823058374949516E+07,  1.310028201949641E+06,  3.146765999019167E+01, -1.502069846828975E+01, -2.021930105523634E+00,  3.619091921961834E+02,  1.084976463012882E+08,  2.184226649540618E-01,
2458100.166666667, A.D. 2017-Dec-12 16:00:00.0000,      69.183390, -4.593856374533477E+07, -9.828459211118723E+07,  1.302748373135589E+06,  3.148486509194703E+01, -1.498394368219670E+01, -2.022418779990717E+00,  3.619118144239832E+02,  1.084984324254058E+08,  2.183129071738646E-01,
2458100.208333333, A.D. 2017-Dec-12 17:00:00.0000,      69.183391, -4.582518732597474E+07, -9.833846812075220E+07,  1.295466790014535E+06,  3.150202742217069E+01, -1.494716951711720E+01, -2.022904720437257E+00,  3.619144353320231E+02,  1.084992181538692E+08,  2.182028571604901E-01,
2458100.250000000, A.D. 2017-Dec-12 18:00:00.0000,      69.183392, -4.571174919924626E+07, -9.839221170851564E+07,  1.288183462429896E+06,  3.151914695979368E+01, -1.491037602302035E+01, -2.023387926332808E+00,  3.619170549167946E+02,  1.085000034856268E+08,  2.180925150723328E-01,
2458100.291666667, A.D. 2017-Dec-12 19:00:00.0000,      69.183394, -4.559824951924056E+07, -9.844582280498312E+07,  1.280898400227025E+06,  3.153622368380513E+01, -1.487356324989632E+01, -2.023868397150555E+00,  3.619196731747916E+02,  1.085007884196274E+08,  2.179818810681886E-01,
2458100.333333333, A.D. 2017-Dec-12 20:00:00.0000,      69.183395, -4.548468844012435E+07, -9.849930134084010E+07,  1.273611613253146E+06,  3.155325757325235E+01, -1.483673124775626E+01, -2.024346132367335E+00,  3.619222901025096E+02,  1.085015729548204E+08,  2.178709553071762E-01,
2458100.375000000, A.D. 2017-Dec-12 21:00:00.0000,      69.183396, -4.537106611613970E+07, -9.855264724695218E+07,  1.266323111357316E+06,  3.157024860724077E+01, -1.479988006663227E+01, -2.024821131463621E+00,  3.619249056964460E+02,  1.085023570901557E+08,  2.177597379488398E-01,
2458100.416666667, A.D. 2017-Dec-12 22:00:00.0000,      69.183397, -4.525738270160377E+07, -9.860586045436512E+07,  1.259032904390559E+06,  3.158719676493401E+01, -1.476300975657728E+01, -2.025293393923531E+00,  3.619275199531001E+02,  1.085031408245839E+08,  2.176482291530691E-01,
2458100.458333333, A.D. 2017-Dec-12 23:00:00.0000,      69.183398, -4.514363835090867E+07, -9.865894089430490E+07,  1.251741002205655E+06,  3.160410202555389E+01, -1.472612036766506E+01, -2.025762919234833E+00,  3.619301328689734E+02,  1.085039241570561E+08,  2.175364290801329E-01,
2458100.500000000, A.D. 2017-Dec-13 00:00:00.0000,      69.183399, -4.502983321852114E+07, -9.871188849817780E+07,  1.244447414657265E+06,  3.162096436838043E+01, -1.468921194999007E+01, -2.026229706888925E+00,  3.619327444405688E+02,  1.085047070865240E+08,  2.174243378906900E-01,
2458100.541666667, A.D. 2017-Dec-13 01:00:00.0000,      69.183400, -4.491596745898248E+07, -9.876470319757046E+07,  1.237152151601851E+06,  3.163778377275187E+01, -1.465228455366746E+01, -2.026693756380857E+00,  3.619353546643918E+02,  1.085054896119398E+08,  2.173119557457554E-01,
2458100.583333333, A.D. 2017-Dec-13 02:00:00.0000,      69.183401, -4.480204122690820E+07, -9.881738492424999E+07,  1.229855222897716E+06,  3.165456021806468E+01, -1.461533822883294E+01, -2.027155067209321E+00,  3.619379635369493E+02,  1.085062717322564E+08,  2.171992828067310E-01,
2458100.625000000, A.D. 2017-Dec-13 03:00:00.0000,      69.183403, -4.468805467698793E+07, -9.886993361016403E+07,  1.222556638404936E+06,  3.167129368377361E+01, -1.457837302564279E+01, -2.027613638876646E+00,  3.619405710547503E+02,  1.085070534464272E+08,  2.170863192353850E-01,
2458100.666666667, A.D. 2017-Dec-13 04:00:00.0000,      69.183404, -4.457400796398514E+07, -9.892234918744080E+07,  1.215256407985389E+06,  3.168798414939168E+01, -1.454138899427370E+01, -2.028069470888815E+00,  3.619431772143057E+02,  1.085078347534063E+08,  2.169730651938581E-01,
2458100.708333333, A.D. 2017-Dec-13 05:00:00.0000,      69.183405, -4.445990124273694E+07, -9.897463158838923E+07,  1.207954541502714E+06,  3.170463159449017E+01, -1.450438618492279E+01, -2.028522562755443E+00,  3.619457820121287E+02,  1.085086156521483E+08,  2.168595208446760E-01,
2458100.750000000, A.D. 2017-Dec-13 06:00:00.0000,      69.183406, -4.434573466815388E+07, -9.902678074549893E+07,  1.200651048822299E+06,  3.172123599869869E+01, -1.446736464780747E+01, -2.028972913989790E+00,  3.619483854447340E+02,  1.085093961416082E+08,  2.167456863507250E-01,
2458100.791666667, A.D. 2017-Dec-13 07:00:00.0000,      69.183407, -4.423150839521975E+07, -9.907879659144038E+07,  1.193345939811319E+06,  3.173779734170515E+01, -1.443032443316542E+01, -2.029420524108771E+00,  3.619509875086384E+02,  1.085101762207420E+08,  2.166315618752676E-01,
2458100.833333333, A.D. 2017-Dec-13 08:00:00.0000,      69.183408, -4.411722257899135E+07, -9.913067905906498E+07,  1.186039224338643E+06,  3.175431560325581E+01, -1.439326559125451E+01, -2.029865392632926E+00,  3.619535882003607E+02,  1.085109558885059E+08,  2.165171475819440E-01,
